{
    "links": {
        "self": "http://www.neowsapp.com/rest/v1/neo/3760434?api_key=iIulBulltgU6a56xZRHN4H3l9WmuAYTsLGpBGhQ2"
    },
    "id": "3760434",
    "neo_reference_id": "3760434",
    "name": "(2016 TJ10)",
    "designation": "2016 TJ10",
    "nasa_jpl_url": "http://ssd.jpl.nasa.gov/sbdb.cgi?sstr=3760434",
    "absolute_magnitude_h": 25.2,
    "estimated_diameter": {
        "kilometers": {
            "estimated_diameter_min": 0.0242412481,
            "estimated_diameter_max": 0.0542050786
        },
        "meters": {
            "estimated_diameter_min": 24.2412481101,
            "estimated_diameter_max": 54.2050786336
        },
        "miles": {
            "estimated_diameter_min": 0.0150628086,
            "estimated_diameter_max": 0.0336814639
        },
        "feet": {
            "estimated_diameter_min": 79.5316564495,
            "estimated_diameter_max": 177.8381901842
        }
    },
    "is_potentially_hazardous_asteroid": false,
    "close_approach_data": [
        {
            "close_approach_date": "2016-10-10",
            "close_approach_date_full": "2016-Oct-10 20:43",
            "epoch_date_close_approach": 1476132180000,
            "relative_velocity": {
                "kilometers_per_second": "14.3555262612",
                "kilometers_per_hour": "51679.89454018",
                "miles_per_hour": "32111.8766935913"
            },
            "miss_distance": {
                "astronomical": "0.0086474903",
                "lunar": "3.3638737267",
                "kilometers": "1293646.129725661",
                "miles": "803834.4307136818"
            },
            "orbiting_body": "Moon"
        },
        {
            "close_approach_date": "2016-10-11",
            "close_approach_date_full": "2016-Oct-11 01:08",
            "epoch_date_close_approach": 1476148080000,
            "relative_velocity": {
                "kilometers_per_second": "13.8129645701",
                "kilometers_per_hour": "49726.6724525249",
                "miles_per_hour": "30898.2204469591"
            },
            "miss_distance": {
                "astronomical": "0.010900513",
                "lunar": "4.240299557",
                "kilometers": "1630693.52670731",
                "miles": "1013265.971728478"
            },
            "orbiting_body": "Earth"
        }
    ],
    "orbital_data": {
        "orbit_id": "4",
        "orbit_determination_date": "2017-04-06 08:23:22",
        "first_observation_date": "2016-10-05",
        "last_observation_date": "2016-10-09",
        "data_arc_in_days": 4,
        "observations_used": 43,
        "orbit_uncertainty": "8",
        "minimum_orbit_intersection": ".00216555",
        "jupiter_tisserand_invariant": "3.923",
        "epoch_osculation": "2457667.5",
        "eccentricity": ".508176404466028",
        "semi_major_axis": "1.758326710445042",
        "inclination": "15.85181395517685",
        "ascending_node_longitude": "196.6680633871933",
        "orbital_period": "851.6237942019421",
        "perihelion_distance": ".8647865648545019",
        "perihelion_argument": "233.5592938553873",
        "aphelion_distance": "2.651866856035582",
        "perihelion_time": "2457711.347064428559",
        "mean_anomaly": "341.4648870760201",
        "mean_motion": ".4227218666868702",
        "equinox": "J2000",
        "orbit_class": {
            "orbit_class_type": "APO",
            "orbit_class_description": "Near-Earth asteroid orbits which cross the Earth’s orbit similar to that of 1862 Apollo",
            "orbit_class_range": "a (semi-major axis) > 1.0 AU; q (perihelion) < 1.017 AU"
        }
    },
    "is_sentry_object": false
}